STARLINK-3789           
1 52283U 22041Y   24187.73830338  .00000857  00000+0  71921-4 0  9999
2 52283  53.2168 336.2770 0000960  78.9089 281.2011 15.08843401121981
STARLINK-3561           
1 52284U 22041Z   24187.65090727  .00004032  00000+0  27121-3 0  9992
2 52284  53.2167 326.6683 0000892  95.1421 264.9673 15.08843374122108
STARLINK-3775           
1 52285U 22041AA  24187.73462976  .00001275  00000+0  98165-4 0  9994
2 52285  53.2180 336.2933 0001171  80.2915 279.8209 15.08838827121985
STARLINK-3802           
1 52286U 22041AB  24187.64354811  .00001289  00000+0  99038-4 0  9998
2 52286  53.2171 326.7058 0000961  80.7814 279.3287 15.08839332122105
STARLINK-3822           
1 52287U 22041AC  24187.72726733  .00000585  00000+0  54823-4 0  9995
2 52287  53.2191 336.3320 0001140  82.3910 277.7212 15.08839720121988
STARLINK-3776           
1 52288U 22041AD  24187.63986963  .00000700  00000+0  62068-4 0  9998
2 52288  53.2191 326.7221 0001459  82.2315 277.8843 15.08838422122107
STARLINK-3751           
1 52289U 22041AE  24187.65458440 -.00001161  00000+0 -54874-4 0  9995
2 52289  53.2172 326.6524 0001402  90.1002 270.0151 15.08839148122104
STARLINK-3772           
1 52290U 22041AF  24187.62978662  .00000696  00000+0  61811-4 0  9996
2 52290  53.2181 326.7708 0001467  83.9838 276.1322 15.08838355122105
STARLINK-3773           
1 52291U 22041AG  24187.67682903  .00039648  00000+0  20640-2 0  9994
2 52291  53.2179 324.0853 0002229 141.9725 218.1427 15.15666511122149
STARLINK-3753           
1 52292U 22041AH  24187.69138050  .00001011  00000+0  81565-4 0  9994
2 52292  53.2187 326.4978 0001427 116.3513 243.7626 15.08845074122110
STARLINK-3771           
1 52293U 22041AJ  24187.70337597  .00002739  00000+0  19006-3 0  9992
2 52293  53.2199 326.4499 0001318  78.1323 281.9817 15.08851500122112
STARLINK-3777           
1 52294U 22041AK  24187.68770882  .00001482  00000+0  11115-3 0  9995
2 52294  53.2178 326.5123 0001377  96.5328 263.5821 15.08841492122119
STARLINK-3765           
1 52295U 22041AL  24187.63250708  .00021203  00000+0  13461-2 0  9999
2 52295  53.2164 326.7549 0000978  70.1026 290.0071 15.08845518122102
STARLINK-3766           
1 52296U 22041AM  24187.67666489  .00003167  00000+0  21692-3 0  9996
2 52296  53.2169 326.5571 0001150  87.9038 272.2086 15.08849418122115
STARLINK-3758           
1 52297U 22041AN  24187.69506879  .00002061  00000+0  14755-3 0  9999
2 52297  53.2180 326.4749 0001249  82.7477 277.3657 15.08842464122118
STARLINK-3760           
1 52298U 22041AP  24187.70237910  .00002401  00000+0  16886-3 0  9994
2 52298  53.2183 326.0546 0001307  77.6256 282.4883 15.08844212122128
STARLINK-3759           
1 52299U 22041AQ  24187.68033830  .00003214  00000+0  21985-3 0  9996
2 52299  53.2169 326.5416 0001003  88.0119 272.0988 15.08853196122112
STARLINK-3769           
1 52300U 22041AR  24187.66562147 -.00000114  00000+0  10909-4 0  9997
2 52300  53.2184 326.6066 0001139  87.9461 272.1662 15.08845101123334
STARLINK-3768           
1 52301U 22041AS  24187.68403197  .00001031  00000+0  82855-4 0  9996
2 52301  53.2176 326.5286 0001300  92.9734 267.1407 15.08838640122114
STARLINK-3564           
1 52302U 22041AT  24187.65551120  .00000074  00000+0  22751-4 0  9999
2 52302  53.2185 316.6577 0001061  96.3266 263.7847 15.08838225122243
STARLINK-3742           
1 52303U 22041AU  24187.66930743  .00003421  00000+0  23289-3 0  9998
2 52303  53.2188 326.5880 0001261 104.7435 255.3697 15.08845657123336
STARLINK-3744           
1 52304U 22041AV  24187.65182269  .00002378  00000+0  16743-3 0  9997
2 52304  53.2185 316.6742 0001158  86.8287 273.2838 15.08843296122243
STARLINK-3724           
1 52305U 22041AW  24187.67299460  .00002515  00000+0  17601-3 0  9999
2 52305  53.2179 326.6774 0001135  97.1889 262.9232 15.08849895122111
STARLINK-3747           
1 52306U 22041AX  24187.64814213  .00001941  00000+0  13998-3 0  9993
2 52306  53.2170 316.6826 0001176  93.8513 266.2614 15.08846683123464
STARLINK-3755           
1 52307U 22041AY  24187.66194008  .00000504  00000+0  49716-4 0  9991
2 52307  53.2186 326.6230 0001005  81.5088 278.6019 15.08848086122110
STARLINK-3756           
1 52309U 22041BA  24187.57822945  .00003377  00000+0  23014-3 0  9994
2 52309  53.2187 316.9959 0001372 100.8690 259.2456 15.08843142123450
STARLINK-3688           
1 52310U 22041BB  24187.64078748  .00001841  00000+0  13371-3 0  9997
2 52310  53.2173 316.7826 0000827  78.0451 282.0634 15.08845142123468
STARLINK-3750           
1 52311U 22041BC  24187.63709329 -.00005328  00000+0 -31660-3 0  9990
2 52311  53.2179 316.7294 0001300 102.3385 257.7753 15.08878928123467
STARLINK-3752           
1 52312U 22041BD  24187.66285825  .00000921  00000+0  75924-4 0  9998
2 52312  53.2178 316.5751 0001286  99.0365 261.0772 15.08842352123478
STARLINK-3749           
1 52313U 22041BE  24187.66654499  .00001715  00000+0  12582-3 0  9998
2 52313  53.2173 316.6075 0001378  94.3326 265.7824 15.08844022123476
STARLINK-3889           
1 52331U 22045A   24187.92046646 -.00000534  00000+0 -15475-4 0  9995
2 52331  53.2178  75.4656 0001428 103.2588 256.8563 15.08837620123288
STARLINK-3831           
1 52332U 22045B   24187.93246699  .00000996  00000+0  80662-4 0  9997
2 52332  53.2179  75.4178 0001651  89.5852 270.5330 15.08835359123289
STARLINK-3847           
1 52333U 22045C   24187.92783011  .00000543  00000+0  52211-4 0  9998
2 52333  53.2168  75.4306 0001390 107.9124 252.2020 15.08837550123275
STARLINK-3880           
1 52334U 22045D   24187.91679489  .00012487  00000+0  80085-3 0  9990
2 52334  53.2170  75.4785 0001360  83.2540 276.8607 15.08857851123274
STARLINK-3814           
1 52335U 22045E   24187.91310459  .00003194  00000+0  21860-3 0  9991
2 52335  53.2168  75.4946 0001366  92.3974 267.7174 15.08851950123282
STARLINK-3823           
1 52336U 22045F   24187.95355822  .00001549  00000+0  11534-3 0  9998
2 52336  53.2156  75.1081 0001141 101.4338 258.6782 15.08849959123295
STARLINK-3797           
1 52337U 22045G   24187.92414834 -.00000608  00000+0 -20142-4 0  9998
2 52337  53.2174  75.4481 0001256 104.7335 255.3797 15.08840294123285
STARLINK-3815           
1 52338U 22045H   24187.90029536  .00030871  00000+0  17182-2 0  9999
2 52338  53.2160  54.8119 0000307 113.0011 247.1016 15.13410549123588
STARLINK-3792           
1 52339U 22045J   24187.93146118  .00001583  00000+0  11752-3 0  9995
2 52339  53.2174  75.0561 0001402  91.4889 268.6264 15.08844755123294
STARLINK-3818           
1 52340U 22045K   24187.92874422  .00008511  00000+0  55197-3 0  9991
2 52340  53.2160  65.4219 0001072  95.4774 264.6341 15.08854292123417
STARLINK-3843           
1 52341U 22045L   24187.89837966 -.00003195  00000+0 -18270-3 0  9996
2 52341  53.2175  75.5142 0001466 101.3679 258.7478 15.08840479123281
STARLINK-3850           
1 52342U 22045M   24187.93243805  .00003578  00000+0  24273-3 0  9998
2 52342  53.2169  65.5221 0001269  95.9346 264.1791 15.08848117123424
STARLINK-3849           
1 52343U 22045N   24187.93518629  .00000715  00000+0  62986-4 0  9992
2 52343  53.2172  75.3967 0001349 107.6514 252.4626 15.08847998123290
STARLINK-3851           
1 52344U 22045P   24187.92139061  .00000809  00000+0  68874-4 0  9997
2 52344  53.2170  65.5175 0001301 101.1990 258.9148 15.08846104123429
STARLINK-3852           
1 52345U 22045Q   24187.94812178  .00000425  00000+0  44803-4 0  9997
2 52345  53.2170  65.5013 0001246  89.0487 271.0648 15.08843230123411
STARLINK-3812           
1 52346U 22045R   24187.91498361  .00001225  00000+0  95016-4 0  9990
2 52346  53.2163  65.4935 0001376 120.2661 239.8468 15.08840705123429
STARLINK-3826           
1 52347U 22045S   24187.92602299  .00001609  00000+0  11914-3 0  9999
2 52347  53.2170  65.4413 0001305  95.9489 264.1652 15.08844083123426
STARLINK-3829           
1 52348U 22045T   24187.90667609  .00000732  00000+0  64077-4 0  9999
2 52348  53.2180  65.5240 0001403  99.4733 260.6418 15.08830386123429
STARLINK-3819           
1 52349U 22045U   24187.91771198 -.00000968  00000+0 -42763-4 0  9991
2 52349  53.2174  65.4694 0001101  87.0591 273.0527 15.08837202123428
STARLINK-3754           
1 52350U 22045V   24187.90298636  .00000739  00000+0  64479-4 0  9995
2 52350  53.2177  65.5369 0001241  82.6865 277.4268 15.08843240123422
STARLINK-3838           
1 52352U 22045X   24187.95818327  .00000028  00000+0  19858-4 0  9999
2 52352  53.2176  65.2951 0001393 112.0121 248.1019 15.08848430123434
STARLINK-3807           
1 52353U 22045Y   24187.89931116 -.00001587  00000+0 -81692-4 0  9993
2 52353  53.2164  65.5578 0001336  99.0192 261.0951 15.08828366123423
STARLINK-3876           
1 52354U 22045Z   24187.94714568  .00001815  00000+0  13212-3 0  9994
2 52354  53.2182  65.3405 0001356  89.3658 270.7489 15.08841369123434
STARLINK-3877           
1 52355U 22045AA  24187.96187051 -.00000854  00000+0 -35615-4 0  9994
2 52355  53.2173  65.2782 0001292 100.1297 259.9841 15.08831334123434
STARLINK-3801           
1 52356U 22045AB  24187.95083282  .00001124  00000+0  88720-4 0  9999
2 52356  53.2181  65.3497 0001290  91.1758 268.9382 15.08835089123438
STARLINK-3821           
1 52357U 22045AC  24187.95450437  .00001481  00000+0  11114-3 0  9998
2 52357  53.2172  65.3117 0001367 100.4125 259.7022 15.08843057123438
STARLINK-3837           
1 52358U 22045AD  24187.93610502  .00011130  00000+0  71632-3 0  9991
2 52358  53.2166  65.3905 0001261  93.2780 266.8357 15.08837052123434
STARLINK-3853           
1 52359U 22045AE  24187.95178326  .00001139  00000+0  89607-4 0  9997
2 52359  53.2168  65.3289 0001174  90.9053 269.2074 15.08842825123439
STARLINK-3824           
1 52360U 22045AF  24187.92966347  .00001886  00000+0  13656-3 0  9993
2 52360  53.2183  55.4194 0001270  91.4069 268.7069 15.08842221123554
